ONEWEB-0528             
1 54643U 22166B   23274.82533506  .00000020  00000+0  17091-4 0  9992
2 54643  87.9182  80.9478 0001877  86.6880 273.4469 13.21824088 40842
ONEWEB-0539             
1 54644U 22166C   23274.86317832  .00000087  00000+0  18024-3 0  9998
2 54644  87.9181  80.9400 0001957  98.4185 261.7170 13.21823955 40846
ONEWEB-0540             
1 54645U 22166D   23275.46239705 -.00002325  00000+0 -56627-2 0  9997
2 54645  87.9184  80.8453 0001977  95.8921 264.2438 13.21837861 41384
ONEWEB-0542             
1 54646U 22166E   23275.40149078 -.00001146  00000+0 -28073-2 0  9999
2 54646  87.9215  80.8337 0001472 135.4366 224.6886 13.21802496 41377
ONEWEB-0545             
1 54647U 22166F   23274.83796009  .00000015  00000+0  37920-5 0  9994
2 54647  87.9182  80.9855 0002190 105.2727 254.8649 13.21826331 40804
ONEWEB-0580             
1 54648U 22166G   23275.41828217 -.00000192  00000+0 -49548-3 0  9992
2 54648  87.9179  80.8256 0001618 111.2841 248.8466 13.21831911 41387
ONEWEB-0582             
1 54649U 22166H   23275.00405330 -.00000032  00000+0 -10842-3 0  9993
2 54649  87.9182  80.9462 0002056  94.7126 265.4243 13.21827764 41312
ONEWEB-0583             
1 54650U 22166J   23275.47085349 -.00000009  00000+0 -54077-4 0  9993
2 54650  87.9182  80.8602 0001856  77.1185 283.0156 13.21824169 41399
